{
  "type": "FeatureCollection",
  "features": [
    {
      "type": "Feature",
      "properties": {
        "OBJECT_NAME": "QUICK3",
        "OBJECT_ID": "2025-135AG",
        "EPOCH": "2025-11-29T19:49:43.349088",
        "MEAN_MOTION": 15.20993739,
        "ECCENTRICITY": 0.0006736,
        "INCLINATION": 97.4606,
        "RA_OF_ASC_NODE": 86.0865,
        "ARG_OF_PERICENTER": 135.7284,
        "MEAN_ANOMALY": 224.4492,
        "EPHEMERIS_TYPE": 0,
        "CLASSIFICATION_TYPE": "U",
        "NORAD_CAT_ID": 64558,
        "ELEMENT_SET_NO": 999,
        "REV_AT_EPOCH": 2448,
        "BSTAR": 0.00061547,
        "MEAN_MOTION_DOT": 0.00013598,
        "MEAN_MOTION_DDOT": 0,
        "norad_id": 64558,
        "name": "QUICK3",
        "group": "active",
        "longitude_deg": NaN,
        "latitude_deg": NaN,
        "alt_km": NaN,
        "orbit_class": "HEO",
        "timestamp": "2025-11-30T09:33:02.580832+00:00"
      },
      "geometry": {
        "type": "Point",
        "coordinates": [
          NaN,
          NaN
        ]
      }
    },
    {
      "type": "Feature",
      "properties": {
        "OBJECT_NAME": "PADRE",
        "OBJECT_ID": "2025-135AH",
        "EPOCH": "2025-11-30T00:53:43.666944",
        "MEAN_MOTION": 14.91519881,
        "ECCENTRICITY": 0.0001882,
        "INCLINATION": 97.7583,
        "RA_OF_ASC_NODE": 85.6412,
        "ARG_OF_PERICENTER": 163.251,
        "MEAN_ANOMALY": 196.8771,
        "EPHEMERIS_TYPE": 0,
        "CLASSIFICATION_TYPE": "U",
        "NORAD_CAT_ID": 64559,
        "ELEMENT_SET_NO": 999,
        "REV_AT_EPOCH": 2415,
        "BSTAR": 0.00025467,
        "MEAN_MOTION_DOT": 2.495e-05,
        "MEAN_MOTION_DDOT": 0,
        "norad_id": 64559,
        "name": "PADRE",
        "group": "active",
        "longitude_deg": NaN,
        "latitude_deg": NaN,
        "alt_km": NaN,
        "orbit_class": "HEO",
        "timestamp": "2025-11-30T09:33:02.580839+00:00"
      },
      "geometry": {
        "type": "Point",
        "coordinates": [
          NaN,
          NaN
        ]
      }
    },
    {
      "type": "Feature",
      "properties": {
        "OBJECT_NAME": "2025-135AJ",
        "OBJECT_ID": "2025-135AJ",
        "EPOCH": "2025-11-30T00:36:23.797152",
        "MEAN_MOTION": 14.93140502,
        "ECCENTRICITY": 0.0001033,
        "INCLINATION": 97.7605,
        "RA_OF_ASC_NODE": 85.8501,
        "ARG_OF_PERICENTER": 133.3663,
        "MEAN_ANOMALY": 226.7643,
        "EPHEMERIS_TYPE": 0,
        "CLASSIFICATION_TYPE": "U",
        "NORAD_CAT_ID": 64560,
        "ELEMENT_SET_NO": 999,
        "REV_AT_EPOCH": 2416,
        "BSTAR": 0.00061037,
        "MEAN_MOTION_DOT": 6.313e-05,
        "MEAN_MOTION_DDOT": 0,
        "norad_id": 64560,
        "name": "2025-135AJ",
        "group": "active",
        "longitude_deg": NaN,
        "latitude_deg": NaN,
        "alt_km": NaN,
        "orbit_class": "HEO",
        "timestamp": "2025-11-30T09:33:02.580846+00:00"
      },
      "geometry": {
        "type": "Point",
        "coordinates": [
          NaN,
          NaN
        ]
      }
    },
    {
      "type": "Feature",
      "properties": {
        "OBJECT_NAME": "LEMUR-2-KRISH",
        "OBJECT_ID": "2025-135AK",
        "EPOCH": "2025-11-29T21:12:57.978432",
        "MEAN_MOTION": 14.93325099,
        "ECCENTRICITY": 0.0001284,
        "INCLINATION": 97.7616,
        "RA_OF_ASC_NODE": 85.7498,
        "ARG_OF_PERICENTER": 87.477,
        "MEAN_ANOMALY": 272.6597,
        "EPHEMERIS_TYPE": 0,
        "CLASSIFICATION_TYPE": "U",
        "NORAD_CAT_ID": 64561,
        "ELEMENT_SET_NO": 999,
        "REV_AT_EPOCH": 2414,
        "BSTAR": 0.00072667,
        "MEAN_MOTION_DOT": 7.564e-05,
        "MEAN_MOTION_DDOT": 0,
        "norad_id": 64561,
        "name": "LEMUR-2-KRISH",
        "group": "active",
        "longitude_deg": NaN,
        "latitude_deg": NaN,
        "alt_km": NaN,
        "orbit_class": "HEO",
        "timestamp": "2025-11-30T09:33:02.580853+00:00"
      },
      "geometry": {
        "type": "Point",
        "coordinates": [
          NaN,
          NaN
        ]
      }
    },
    {
      "type": "Feature",
      "properties": {
        "OBJECT_NAME": "HUBBLE 6",
        "OBJECT_ID": "2025-135AL",
        "EPOCH": "2025-11-30T03:01:54.926688",
        "MEAN_MOTION": 14.92237894,
        "ECCENTRICITY": 0.0001733,
        "INCLINATION": 97.7618,
        "RA_OF_ASC_NODE": 85.8964,
        "ARG_OF_PERICENTER": 107.0719,
        "MEAN_ANOMALY": 253.069,
        "EPHEMERIS_TYPE": 0,
        "CLASSIFICATION_TYPE": "U",
        "NORAD_CAT_ID": 64562,
        "ELEMENT_SET_NO": 999,
        "REV_AT_EPOCH": 2417,
        "BSTAR": 0.00031221,
        "MEAN_MOTION_DOT": 3.128e-05,
        "MEAN_MOTION_DDOT": 0,
        "norad_id": 64562,
        "name": "HUBBLE 6",
        "group": "active",
        "longitude_deg": NaN,
        "latitude_deg": NaN,
        "alt_km": NaN,
        "orbit_class": "HEO",
        "timestamp": "2025-11-30T09:33:02.580859+00:00"
      },
      "geometry": {
        "type": "Point",
        "coordinates": [
          NaN,
          NaN
        ]
      }
    },
    {
      "type": "Feature",
      "properties": {
        "OBJECT_NAME": "AE3VA",
        "OBJECT_ID": "2025-135AM",
        "EPOCH": "2025-11-29T20:39:56.729664",
        "MEAN_MOTION": 14.93804758,
        "ECCENTRICITY": 0.0002434,
        "INCLINATION": 97.7549,
        "RA_OF_ASC_NODE": 85.6809,
        "ARG_OF_PERICENTER": 192.9313,
        "MEAN_ANOMALY": 167.1845,
        "EPHEMERIS_TYPE": 0,
        "CLASSIFICATION_TYPE": "U",
        "NORAD_CAT_ID": 64563,
        "ELEMENT_SET_NO": 999,
        "REV_AT_EPOCH": 2414,
        "BSTAR": 0.00094042,
        "MEAN_MOTION_DOT": 9.928e-05,
        "MEAN_MOTION_DDOT": 0,
        "norad_id": 64563,
        "name": "AE3VA",
        "group": "active",
        "longitude_deg": NaN,
        "latitude_deg": NaN,
        "alt_km": NaN,
        "orbit_class": "HEO",
        "timestamp": "2025-11-30T09:33:02.580865+00:00"
      },
      "geometry": {
        "type": "Point",
        "coordinates": [
          NaN,
          NaN
        ]
      }
    },
    {
      "type": "Feature",
      "properties": {
        "OBJECT_NAME": "TIME FLIES",
        "OBJECT_ID": "2025-135AN",
        "EPOCH": "2025-11-29T19:36:02.110176",
        "MEAN_MOTION": 14.92998589,
        "ECCENTRICITY": 0.000156,
        "INCLINATION": 97.7578,
        "RA_OF_ASC_NODE": 85.6156,
        "ARG_OF_PERICENTER": 184.5729,
        "MEAN_ANOMALY": 175.5476,
        "EPHEMERIS_TYPE": 0,
        "CLASSIFICATION_TYPE": "U",
        "NORAD_CAT_ID": 64564,
        "ELEMENT_SET_NO": 999,
        "REV_AT_EPOCH": 2413,
        "BSTAR": 0.00035248,
        "MEAN_MOTION_DOT": 3.608e-05,
        "MEAN_MOTION_DDOT": 0,
        "norad_id": 64564,
        "name": "TIME FLIES",
        "group": "active",
        "longitude_deg": NaN,
        "latitude_deg": NaN,
        "alt_km": NaN,
        "orbit_class": "HEO",
        "timestamp": "2025-11-30T09:33:02.580871+00:00"
      },
      "geometry": {
        "type": "Point",
        "coordinates": [
          NaN,
          NaN
        ]
      }
    },
    {
      "type": "Feature",
      "properties": {
        "OBJECT_NAME": "LEMUR-2-HUBBLE-4",
        "OBJECT_ID": "2025-135AP",
        "EPOCH": "2025-11-30T02:55:39.021024",
        "MEAN_MOTION": 14.92103183,
        "ECCENTRICITY": 0.0002069,
        "INCLINATION": 97.7563,
        "RA_OF_ASC_NODE": 85.8031,
        "ARG_OF_PERICENTER": 194.3936,
        "MEAN_ANOMALY": 165.7224,
        "EPHEMERIS_TYPE": 0,
        "CLASSIFICATION_TYPE": "U",
        "NORAD_CAT_ID": 64565,
        "ELEMENT_SET_NO": 999,
        "REV_AT_EPOCH": 2417,
        "BSTAR": 0.00027785,
        "MEAN_MOTION_DOT": 2.768e-05,
        "MEAN_MOTION_DDOT": 0,
        "norad_id": 64565,
        "name": "LEMUR-2-HUBBLE-4",
        "group": "active",
        "longitude_deg": NaN,
        "latitude_deg": NaN,
        "alt_km": NaN,
        "orbit_class": "HEO",
        "timestamp": "2025-11-30T09:33:02.580879+00:00"
      },
      "geometry": {
        "type": "Point",
        "coordinates": [
          NaN,
          NaN
        ]
      }
    }
  ]
}