QUICK3                  
1 64558U 25135AG  25333.82619617  .00013598  00000+0  61547-3 0  9991
2 64558  97.4606  86.0865 0006736 135.7284 224.4492 15.20993739 24480
PADRE                   
1 64559U 25135AH  25334.03731096  .00002495  00000+0  25467-3 0  9997
2 64559  97.7583  85.6412 0001882 163.2510 196.8771 14.91519881 24151
2025-135AJ              
1 64560U 25135AJ  25334.02527543  .00006313  00000+0  61037-3 0  9994
2 64560  97.7605  85.8501 0001033 133.3663 226.7643 14.93140502 24168
LEMUR-2-KRISH           
1 64561U 25135AK  25333.88400438  .00007564  00000+0  72667-3 0  9991
2 64561  97.7616  85.7498 0001284  87.4770 272.6597 14.93325099 24143
HUBBLE 6                
1 64562U 25135AL  25334.12633017  .00003128  00000+0  31221-3 0  9994
2 64562  97.7618  85.8964 0001733 107.0719 253.0690 14.92237894 24170
AE3VA                   
1 64563U 25135AM  25333.86107326  .00009928  00000+0  94042-3 0  9998
2 64563  97.7549  85.6809 0002434 192.9313 167.1845 14.93804758 24146
TIME FLIES              
1 64564U 25135AN  25333.81669109  .00003608  00000+0  35248-3 0  9998
2 64564  97.7578  85.6156 0001560 184.5729 175.5476 14.92998589 24138
LEMUR-2-HUBBLE-4        
1 64565U 25135AP  25334.12197941  .00002768  00000+0  27785-3 0  9997
2 64565  97.7563  85.8031 0002069 194.3936 165.7224 14.92103183 24175
